{"type":"FeatureCollection","features":[{"type":"Feature","properties":{"Boundary":"Expansion Zone"},"geometry":{"coordinates":[[[-87.6692893856074,41.95445544705643],[-87.66612497416965,41.84528247484147],[-87.61723642195575,41.8455128612631],[-87.61045829807401,41.845553925471336],[-87.61223635738097,41.892622946959534],[-87.63991142819042,41.95493221453128],[-87.6692893856074,41.95445544705643]]],"type":"Polygon"}},{"type":"Feature","properties":{"Boundary":"Initial Pilot Zone"},"geometry":{"coordinates":[[[-87.66790056789551,41.910755552505435],[-87.66663360534471,41.86665892700864],[-87.61904372441161,41.867291895902866],[-87.61172231338767,41.86747867939198],[-87.61224971033188,41.89261213534226],[-87.62667055075364,41.91252983589564],[-87.6276772142241,41.91246014988505],[-87.62880093158684,41.91266920768928],[-87.63107177739724,41.913522853018236],[-87.63175068997023,41.91357511666297],[-87.6333192121223,41.913052478287],[-87.63338944445748,41.91134516310035],[-87.66790056789551,41.910755552505435]]],"type":"Polygon"}}]}
